UWE-4                   
1 43880U 18111E   24029.29907459  .00009983  00000+0  68371-3 0  9993
2 43880  97.6214 296.3398 0018848 122.0796 238.2264 15.06126095276355
JAISAT-1                
1 44419U 19038F   24028.97821893  .00062890  00000+0  11401-2 0  9999
2 44419  97.6849  26.1493 0009016 189.4528 170.6554 15.49364708253246
DUCHIFAT-3              
1 44854U 19089C   24028.76705839  .00013091  00000+0  76077-3 0  9996
2 44854  36.9582 178.1504 0008524  16.4935 343.6087 15.11479441226988
TIANYAN 01              
1 44881U 19093C   24029.41808274  .00001580  00000+0  19954-3 0  9992
2 44881  97.8419 108.8820 0015770  62.3814 297.8999 14.83220308222321
RS-44 & BREEZE-KM R/B   
1 44909U 19096E   24028.93299485 -.00000003  00000+0 -55735-4 0  9999
2 44909  82.5209 197.9451 0217713  19.4076 341.5155 12.79726126191039
BY70-2                  
1 45857U 20042B   24029.45149321  .00049701  00000+0  34454-2 0  9995
2 45857  97.9192 117.1719 0007839 322.0169  38.0503 15.05403470193387
SALSAT                  
1 46495U 20068K   24029.42675069  .00008278  00000+0  50253-3 0  9992
2 46495  97.7999 345.6397 0016310  72.2575 288.0432 15.10669974183193
RADFXSAT-2 (AO-109)     
1 47311U 21002C   24028.89265655  .00101154  00000+0  10677-2 0  9997
2 47311  60.6710 258.5621 0026202  71.0736 289.3207 15.63177825169230
UVSQ-SAT                
1 47438U 21006AB  24028.68666217  .00028348  00000+0  83606-3 0  9993
2 47438  97.3513  88.6307 0007945   9.7128 350.4268 15.34936605167105
LEDSAT                  
1 49069U 21073D   24029.15695052  .00013927  00000+0  65064-3 0  9996
2 49069  97.4558 101.6854 0022420  57.0280 303.3106 15.19689618135150
XW-3 (CAS-9)            
1 50466U 21131B   24029.48156106  .00000953  00000+0  32110-3 0  9993
2 50466  98.5365 115.2164 0004415 170.3997 189.7275 14.39329573109903
TEVEL-3                 
1 50988U 22002E   24029.45702091  .00050872  00000+0  12613-2 0  9997
2 50988  97.4023 101.6059 0005381 144.3536 215.8070 15.40205252113398
TEVEL-8                 
1 50989U 22002F   24029.42236329  .00052975  00000+0  13175-2 0  9991
2 50989  97.4041 101.6534 0005291 142.6868 217.4747 15.40101197113387
TEVEL-5                 
1 50998U 22002Q   24029.42564084  .00058928  00000+0  13760-2 0  9997
2 50998  97.4016 102.3432 0005999 137.4805 222.6908 15.41979880113449
TEVEL-6                 
1 50999U 22002R   24029.42562340  .00060696  00000+0  14182-2 0  9995
2 50999  97.4014 102.3294 0005994 137.3572 222.8142 15.41952136113446
TEVEL-1                 
1 51013U 22002AF  24029.41102388  .00053269  00000+0  13243-2 0  9999
2 51013  97.4016 101.4567 0005167 143.7615 216.3982 15.40112496113389
TEVEL-7                 
1 51062U 22002CG  24029.41820504  .00052810  00000+0  13107-2 0  9990
2 51062  97.4036 101.6196 0005261 143.0759 217.0850 15.40164881113389
TEVEL-4                 
1 51063U 22002CH  24029.43747382  .00050193  00000+0  12526-2 0  9991
2 51063  97.4033 101.5862 0005268 142.4714 217.6901 15.40010532113383
TEVEL-2                 
1 51069U 22002CP  24029.45722997  .00050042  00000+0  12402-2 0  9990
2 51069  97.4021 101.5731 0005353 143.9075 216.2534 15.40222252113394
GREENCUBE               
1 53106U 22080B   24023.90926672 -.00000003  00000+0  00000+0 0  9991
2 53106  70.1321 243.0011 0008307 135.9399 224.1923  6.42557719 35938
CYCLOPS (RS29S)         
1 53373U 22096D   24029.10098633  .00265180  00000+0  16104-2 0  9992
2 53373  97.3934 307.0899 0006645 101.7688 258.4324 15.76737779 82722
MONITOR-1 (RS32S)       
1 53374U 22096E   24029.44829482  .00176381  00000+0  14124-2 0  9998
2 53374  97.3882 306.4475 0006239  96.0998 264.0975 15.70496441 82724
KUZBASS-300 (RS34S)     
1 53375U 22096F   24029.46662291  .00080290  00000+0  11222-2 0  9993
2 53375  97.3977 304.4756 0004634  83.6176 276.5606 15.56565605 82583
UTMN (RS23S)            
1 53376U 22096G   24029.50574297  .00087157  00000+0  11034-2 0  9997
2 53376  97.3957 304.9989 0004963  89.2992 270.8832 15.59191801 82627
MIET-AIS (RS28S)        
1 53377U 22096H   24029.46067941  .00066629  00000+0  10291-2 0  9991
2 53377  97.3996 304.0690 0004117  85.6216 274.5508 15.53887100 82552
KAI-1 (RS26S)           
1 53378U 22096J   24029.49625414  .00046733  00000+0  86306-3 0  9995
2 53378  97.4044 303.0294 0003807  82.0630 278.1053 15.48942681 82480
ISOI (RS19S)            
1 53381U 22096M   24029.44806310  .00069281  00000+0  10176-2 0  9994
2 53381  97.4017 304.6662 0002751  66.9985 293.1560 15.55264212 82598
CUBESX-HSE-2 (RS21S)    
1 53383U 22096P   24029.47350342  .00086288  00000+0  11112-2 0  9995
2 53383  97.3965 305.2180 0002809  65.5572 294.5977 15.58750235 82634
SIREN (RS30S)           
1 53384U 22096Q   24029.44987888  .00056813  00000+0  94115-3 0  9990
2 53384  97.4015 303.9504 0002223  46.4247 313.7190 15.51983890 82543
GEOSCAN-EDELVEIS (RS20S)
1 53385U 22096R   24029.34439974  .00424920  00000+0  16463-2 0  9995
2 53385  97.3888 308.8412 0004912 111.4074 248.7721 15.86146652 82891
CAS-5A (FO-118)         
1 54684U 22167C   24029.44544136  .00022353  00000+0  98111-3 0  9990
2 54684  97.5857 172.0800 0011123 275.3654  84.6313 15.21906558 62991
STRATOSAT-TK 1 (RS52S)  
1 57167U 23091B   24029.45829273  .00012397  00000+0  81095-3 0  9995
2 57167  97.6341  83.2702 0015368 234.5337 125.4457 15.07819732 32477
UMKA 1 (RS40S)          
1 57172U 23091G   24029.45226667  .00005093  00000+0  35660-3 0  9991
2 57172  97.6337  82.9704 0016124 234.7558 125.2160 15.05586858 32459
CUBESX-HSE 3 (RS42S)    
1 57178U 23091N   24029.23036757  .00008604  00000+0  58955-3 0  9995
2 57178  97.6372  82.9061 0017231 230.8770 129.0925 15.06179341 32427
MONITOR-4 (RS57S)       
1 57182U 23091S   24029.45011576  .00006807  00000+0  47072-3 0  9997
2 57182  97.6358  83.0452 0017319 230.4595 129.5102 15.05915544 32457
MONITOR-2 (RS39S)       
1 57184U 23091U   24029.43983146  .00005209  00000+0  36118-3 0  9992
2 57184  97.6363  83.2245 0013732 223.5555 136.4589 15.05973100 32460
SVYATOBOR 1 (RS60S)     
1 57187U 23091X   24029.37169027  .00007265  00000+0  49053-3 0  9998
2 57187  97.6366  83.3178 0013379 221.5265 138.4947 15.06832281 32460
VIZARD-METEO (RS38S)    
1 57189U 23091Z   24029.49423048  .00009309  00000+0  61323-3 0  9994
2 57189  97.6365  83.5956 0012343 218.7580 141.2763 15.07673934 32495
NANOZOND 1 (RS49S)      
1 57190U 23091AA  24029.46792212  .00011505  00000+0  73106-3 0  9998
2 57190  97.6343  83.7099 0010588 222.9510 137.0893 15.08959018 32502
POLYTECH-UNIVERSE 3 (R*)
1 57191U 23091AB  24029.43439366  .00005832  00000+0  40460-3 0  9997
2 57191  97.6330  82.9877 0019146 242.6646 117.2632 15.05827076 32452
UTMN 2 (RS27S)          
1 57203U 23091AP  24029.45072998  .00007457  00000+0  49586-3 0  9990
2 57203  97.6360  83.4986 0012603 218.5640 141.4688 15.07393195 32488
ARCCUBE 1 (RS25S)       
1 57205U 23091AR  24029.44746801  .00013362  00000+0  83808-3 0  9999
2 57205  97.6313  83.6864 0011003 226.1113 133.9208 15.09394335 32504
KUZGTU 1 (RS47S)        
1 57217U 23091AV  24029.42940620  .00008872  00000+0  60864-3 0  9992
2 57217  97.6349  83.0352 0017117 231.5193 128.4500 15.06126433 32459
HADES-D (SO-121)        
1 58567U 23174CY  24028.75591898  .00028433  00000+0  14299-2 0  9992
2 58567  97.4727 105.4413 0015045   3.6395 356.4945 15.17097936 12410
